{"type": "FeatureCollection", "features": [{"type": "Feature", "properties": {"norad_id": 22675, "name": "COSMOS 2251", "group": "cosmos-2251-debris", "lat": -13.862094623445422, "lon": 158.7320413403415, "alt_km": 797.0317173900094, "timestamp": "2025-12-02T10:50:47.667942+00:00", "meta": {"OBJECT_NAME": "COSMOS 2251", "OBJECT_ID": "1993-036A", "EPOCH": "2025-12-02T03:14:37.993344", "MEAN_MOTION": 14.3319939, "ECCENTRICITY": 0.0023658, "INCLINATION": 74.0393, "RA_OF_ASC_NODE": 335.2608, "ARG_OF_PERICENTER": 60.9501, "MEAN_ANOMALY": 299.4016, "EPHEMERIS_TYPE": 0, "CLASSIFICATION_TYPE": "U", "NORAD_CAT_ID": 22675, "ELEMENT_SET_NO": 999, "REV_AT_EPOCH": 69621, "BSTAR": 6.0206e-05, "MEAN_MOTION_DOT": 1.4e-06, "MEAN_MOTION_DDOT": 0}, "tle": {"line1": "1 22675U 93036A   25336.13516196  .00000140  00000+0  60206-4 0  9996", "line2": "2 22675  74.0393 335.2608 0023658  60.9501 299.4016 14.33199390696219"}}, "geometry": {"type": "Point", "coordinates": [158.7320413403415, -13.862094623445422]}}, {"type": "Feature", "properties": {"norad_id": 33757, "name": "COSMOS 2251 DEB", "group": "cosmos-2251-debris", "lat": -68.79129682291332, "lon": -150.07815525391584, "alt_km": 792.2254190903232, "timestamp": "2025-12-02T10:50:47.667972+00:00", "meta": {"OBJECT_NAME": "COSMOS 2251 DEB", "OBJECT_ID": "1993-036E", "EPOCH": "2025-12-02T05:01:00.606720", "MEAN_MOTION": 14.32576512, "ECCENTRICITY": 0.0014836, "INCLINATION": 74.0368, "RA_OF_ASC_NODE": 342.8356, "ARG_OF_PERICENTER": 358.2443, "MEAN_ANOMALY": 85.5227, "EPHEMERIS_TYPE": 0, "CLASSIFICATION_TYPE": "U", "NORAD_CAT_ID": 33757, "ELEMENT_SET_NO": 999, "REV_AT_EPOCH": 87845, "BSTAR": 5.336e-05, "MEAN_MOTION_DOT": 1.19e-06, "MEAN_MOTION_DDOT": 0}, "tle": {"line1": "1 33757U 93036E   25336.20903480  .00000119  00000+0  53360-4 0  9992", "line2": "2 33757  74.0368 342.8356 0014836 358.2443  85.5227 14.32576512878454"}}, "geometry": {"type": "Point", "coordinates": [-150.07815525391584, -68.79129682291332]}}, {"type": "Feature", "properties": {"norad_id": 33758, "name": "COSMOS 2251 DEB", "group": "cosmos-2251-debris", "lat": -37.803816981069545, "lon": 67.24187586728952, "alt_km": 725.1745165584098, "timestamp": "2025-12-02T10:50:47.667986+00:00", "meta": {"OBJECT_NAME": "COSMOS 2251 DEB", "OBJECT_ID": "1993-036F", "EPOCH": "2025-12-02T03:56:26.143872", "MEAN_MOTION": 14.51480693, "ECCENTRICITY": 0.0017591, "INCLINATION": 74.0288, "RA_OF_ASC_NODE": 234.9466, "ARG_OF_PERICENTER": 302.4676, "MEAN_ANOMALY": 214.2777, "EPHEMERIS_TYPE": 0, "CLASSIFICATION_TYPE": "U", "NORAD_CAT_ID": 33758, "ELEMENT_SET_NO": 999, "REV_AT_EPOCH": 88151, "BSTAR": 0.0010437, "MEAN_MOTION_DOT": 4.153e-05, "MEAN_MOTION_DDOT": 0}, "tle": {"line1": "1 33758U 93036F   25336.16419148  .00004153  00000+0  10437-2 0  9999", "line2": "2 33758  74.0288 234.9466 0017591 302.4676 214.2777 14.51480693881516"}}, "geometry": {"type": "Point", "coordinates": [67.24187586728952, -37.803816981069545]}}, {"type": "Feature", "properties": {"norad_id": 33760, "name": "COSMOS 2251 DEB", "group": "cosmos-2251-debris", "lat": 27.630476963800906, "lon": -51.04213580689827, "alt_km": 757.7875011121068, "timestamp": "2025-12-02T10:50:47.667999+00:00", "meta": {"OBJECT_NAME": "COSMOS 2251 DEB", "OBJECT_ID": "1993-036H", "EPOCH": "2025-12-02T04:05:44.547072", "MEAN_MOTION": 14.3566042, "ECCENTRICITY": 0.0019448, "INCLINATION": 74.0316, "RA_OF_ASC_NODE": 300.8536, "ARG_OF_PERICENTER": 42.3402, "MEAN_ANOMALY": 333.4392, "EPHEMERIS_TYPE": 0, "CLASSIFICATION_TYPE": "U", "NORAD_CAT_ID": 33760, "ELEMENT_SET_NO": 999, "REV_AT_EPOCH": 87973, "BSTAR": 0.00013674, "MEAN_MOTION_DOT": 3.69e-06, "MEAN_MOTION_DDOT": 0}, "tle": {"line1": "1 33760U 93036H   25336.17065448  .00000369  00000+0  13674-3 0  9995", "line2": "2 33760  74.0316 300.8536 0019448  42.3402 333.4392 14.35660420879730"}}, "geometry": {"type": "Point", "coordinates": [-51.04213580689827, 27.630476963800906]}}, {"type": "Feature", "properties": {"norad_id": 33761, "name": "COSMOS 2251 DEB", "group": "cosmos-2251-debris", "lat": 60.15985259853229, "lon": -58.81754143374034, "alt_km": 738.9085070430356, "timestamp": "2025-12-02T10:50:47.668011+00:00", "meta": {"OBJECT_NAME": "COSMOS 2251 DEB", "OBJECT_ID": "1993-036J", "EPOCH": "2025-12-02T02:16:47.434080", "MEAN_MOTION": 14.42485668, "ECCENTRICITY": 0.0022699, "INCLINATION": 74.0366, "RA_OF_ASC_NODE": 271.911, "ARG_OF_PERICENTER": 353.8466, "MEAN_ANOMALY": 17.549, "EPHEMERIS_TYPE": 0, "CLASSIFICATION_TYPE": "U", "NORAD_CAT_ID": 33761, "ELEMENT_SET_NO": 999, "REV_AT_EPOCH": 88081, "BSTAR": 0.00063422, "MEAN_MOTION_DOT": 2.082e-05, "MEAN_MOTION_DDOT": 0}, "tle": {"line1": "1 33761U 93036J   25336.09499345  .00002082  00000+0  63422-3 0  9994", "line2": "2 33761  74.0366 271.9110 0022699 353.8466  17.5490 14.42485668880811"}}, "geometry": {"type": "Point", "coordinates": [-58.81754143374034, 60.15985259853229]}}, {"type": "Feature", "properties": {"norad_id": 33762, "name": "COSMOS 2251 DEB", "group": "cosmos-2251-debris", "lat": 39.21140136663006, "lon": -17.661823328500017, "alt_km": 765.8288086468947, "timestamp": "2025-12-02T10:50:47.668022+00:00", "meta": {"OBJECT_NAME": "COSMOS 2251 DEB", "OBJECT_ID": "1993-036K", "EPOCH": "2025-12-02T04:21:25.087968", "MEAN_MOTION": 14.33658297, "ECCENTRICITY": 0.0014592, "INCLINATION": 74.0413, "RA_OF_ASC_NODE": 329.3307, "ARG_OF_PERICENTER": 34.0229, "MEAN_ANOMALY": 52.1282, "EPHEMERIS_TYPE": 0, "CLASSIFICATION_TYPE": "U", "NORAD_CAT_ID": 33762, "ELEMENT_SET_NO": 999, "REV_AT_EPOCH": 87896, "BSTAR": 5.9022e-05, "MEAN_MOTION_DOT": 1.38e-06, "MEAN_MOTION_DDOT": 0}, "tle": {"line1": "1 33762U 93036K   25336.18154037  .00000138  00000+0  59022-4 0  9993", "line2": "2 33762  74.0413 329.3307 0014592  34.0229  52.1282 14.33658297878966"}}, "geometry": {"type": "Point", "coordinates": [-17.661823328500017, 39.21140136663006]}}, {"type": "Feature", "properties": {"norad_id": 33764, "name": "COSMOS 2251 DEB", "group": "cosmos-2251-debris", "lat": -33.138503001869886, "lon": -79.11855195884955, "alt_km": 759.0668413776484, "timestamp": "2025-12-02T10:50:47.668034+00:00", "meta": {"OBJECT_NAME": "COSMOS 2251 DEB", "OBJECT_ID": "1993-036M", "EPOCH": "2025-12-02T01:21:42.138144", "MEAN_MOTION": 14.39469455, "ECCENTRICITY": 0.0024281, "INCLINATION": 74.0332, "RA_OF_ASC_NODE": 292.3836, "ARG_OF_PERICENTER": 259.8399, "MEAN_ANOMALY": 178.1994, "EPHEMERIS_TYPE": 0, "CLASSIFICATION_TYPE": "U", "NORAD_CAT_ID": 33764, "ELEMENT_SET_NO": 999, "REV_AT_EPOCH": 88003, "BSTAR": 0.00043752, "MEAN_MOTION_DOT": 1.341e-05, "MEAN_MOTION_DDOT": 0}, "tle": {"line1": "1 33764U 93036M   25336.05673771  .00001341  00000+0  43752-3 0  9991", "line2": "2 33764  74.0332 292.3836 0024281 259.8399 178.1994 14.39469455880037"}}, "geometry": {"type": "Point", "coordinates": [-79.11855195884955, -33.138503001869886]}}, {"type": "Feature", "properties": {"norad_id": 33765, "name": "COSMOS 2251 DEB", "group": "cosmos-2251-debris", "lat": 72.90225555329457, "lon": -96.86796890770653, "alt_km": 574.8827053731493, "timestamp": "2025-12-02T10:50:47.668045+00:00", "meta": {"OBJECT_NAME": "COSMOS 2251 DEB", "OBJECT_ID": "1993-036N", "EPOCH": "2025-12-02T01:39:22.532256", "MEAN_MOTION": 15.08927895, "ECCENTRICITY": 0.0068116, "INCLINATION": 74.0115, "RA_OF_ASC_NODE": 195.1498, "ARG_OF_PERICENTER": 289.1476, "MEAN_ANOMALY": 235.1718, "EPHEMERIS_TYPE": 0, "CLASSIFICATION_TYPE": "U", "NORAD_CAT_ID": 33765, "ELEMENT_SET_NO": 999, "REV_AT_EPOCH": 89457, "BSTAR": 0.0024454, "MEAN_MOTION_DOT": 0.0004093, "MEAN_MOTION_DDOT": 0}, "tle": {"line1": "1 33765U 93036N   25336.06901079  .00040930  00000+0  24454-2 0  9992", "line2": "2 33765  74.0115 195.1498 0068116 289.1476 235.1718 15.08927895894574"}}, "geometry": {"type": "Point", "coordinates": [-96.86796890770653, 72.90225555329457]}}, {"type": "Feature", "properties": {"norad_id": 33766, "name": "COSMOS 2251 DEB", "group": "cosmos-2251-debris", "lat": 3.3712509218087496, "lon": -27.29659703101407, "alt_km": 823.0227394780504, "timestamp": "2025-12-02T10:50:47.668056+00:00", "meta": {"OBJECT_NAME": "COSMOS 2251 DEB", "OBJECT_ID": "1993-036P", "EPOCH": "2025-12-01T22:18:52.346592", "MEAN_MOTION": 14.34884049, "ECCENTRICITY": 0.0063593, "INCLINATION": 74.1844, "RA_OF_ASC_NODE": 154.608, "ARG_OF_PERICENTER": 1.065, "MEAN_ANOMALY": 359.0626, "EPHEMERIS_TYPE": 0, "CLASSIFICATION_TYPE": "U", "NORAD_CAT_ID": 33766, "ELEMENT_SET_NO": 999, "REV_AT_EPOCH": 87590, "BSTAR": 0.00052217, "MEAN_MOTION_DOT": 1.493e-05, "MEAN_MOTION_DDOT": 0}, "tle": {"line1": "1 33766U 93036P   25335.92977253  .00001493  00000+0  52217-3 0  9994", "line2": "2 33766  74.1844 154.6080 0063593   1.0650 359.0626 14.34884049875902"}}, "geometry": {"type": "Point", "coordinates": [-27.29659703101407, 3.3712509218087496]}}, {"type": "Feature", "properties": {"norad_id": 33768, "name": "COSMOS 2251 DEB", "group": "cosmos-2251-debris", "lat": 51.39489570892781, "lon": -102.57009005380178, "alt_km": 777.0630125210255, "timestamp": "2025-12-02T10:50:47.668067+00:00", "meta": {"OBJECT_NAME": "COSMOS 2251 DEB", "OBJECT_ID": "1993-036R", "EPOCH": "2025-12-02T04:14:44.358720", "MEAN_MOTION": 13.58440474, "ECCENTRICITY": 0.0365792, "INCLINATION": 74.0687, "RA_OF_ASC_NODE": 236.9131, "ARG_OF_PERICENTER": 36.9922, "MEAN_ANOMALY": 111.6339, "EPHEMERIS_TYPE": 0, "CLASSIFICATION_TYPE": "U", "NORAD_CAT_ID": 33768, "ELEMENT_SET_NO": 999, "REV_AT_EPOCH": 83152, "BSTAR": 0.00041381, "MEAN_MOTION_DOT": 4.47e-06, "MEAN_MOTION_DDOT": 0}, "tle": {"line1": "1 33768U 93036R   25336.17690230  .00000447  00000+0  41381-3 0  9999", "line2": "2 33768  74.0687 236.9131 0365792  36.9922 111.6339 13.58440474831522"}}, "geometry": {"type": "Point", "coordinates": [-102.57009005380178, 51.39489570892781]}}]}